{
  "norad_id": 49181,
  "name": "STARLINK-3059",
  "history": [
    {
      "epoch": "2026-03-28T19:52:34.345920Z",
      "apogee_km": 573.9098991409792,
      "perigee_km": 570.1876576455024,
      "latitude_deg": -2.8371247185648533e-05,
      "longitude_deg": 121.81305900744847,
      "height_km": 574.4170907695219,
      "semi_major_axis_km": 6950.185778393241,
      "eccentricity": 0.00026778,
      "inclination_deg": 69.9996,
      "raan_deg": 246.1992,
      "arg_perigee_deg": 271.81,
      "mean_anomaly_deg": 88.2752,
      "mean_motion_rev_day": 14.983323
    },
    {
      "epoch": "2026-03-29T03:53:14.605440Z",
      "apogee_km": 573.9316544519243,
      "perigee_km": 570.1743817281458,
      "latitude_deg": 4.673610609127418e-05,
      "longitude_deg": 0.47463060776685945,
      "height_km": 574.4043808688359,
      "semi_major_axis_km": 6950.190018090035,
      "eccentricity": 0.0002703,
      "inclination_deg": 69.9995,
      "raan_deg": 245.3575,
      "arg_perigee_deg": 272.3106,
      "mean_anomaly_deg": 87.7744,
      "mean_motion_rev_day": 14.98330929
    },
    {
      "epoch": "2026-03-30T03:55:15.387456Z",
      "apogee_km": 573.9860298776093,
      "perigee_km": 570.1203340983875,
      "latitude_deg": 4.670554887749571e-05,
      "longitude_deg": -3.5410500377546477,
      "height_km": 574.4138045153238,
      "semi_major_axis_km": 6950.190181987998,
      "eccentricity": 0.0002781,
      "inclination_deg": 69.9994,
      "raan_deg": 242.8321,
      "arg_perigee_deg": 271.9733,
      "mean_anomaly_deg": 88.1108,
      "mean_motion_rev_day": 14.98330876
    },
    {
      "epoch": "2026-03-30T13:32:03.649632Z",
      "apogee_km": 574.0006992209283,
      "perigee_km": 570.1031722695416,
      "latitude_deg": 1.3080734263150116e-05,
      "longitude_deg": -149.14696270886532,
      "height_km": 574.4160487231472,
      "semi_major_axis_km": 6950.188935745235,
      "eccentricity": 0.00028039,
      "inclination_deg": 69.9993,
      "raan_deg": 241.8221,
      "arg_perigee_deg": 271.8551,
      "mean_anomaly_deg": 88.2287,
      "mean_motion_rev_day": 14.98331279
    },
    {
      "epoch": "2026-03-30T19:56:35.867616Z",
      "apogee_km": 574.0047368957412,
      "perigee_km": 570.0952567100403,
      "latitude_deg": 1.1538432753096531e-05,
      "longitude_deg": 113.78218924058325,
      "height_km": 574.4137689380873,
      "semi_major_axis_km": 6950.1869968028905,
      "eccentricity": 0.00028125,
      "inclination_deg": 69.9993,
      "raan_deg": 241.1487,
      "arg_perigee_deg": 271.8597,
      "mean_anomaly_deg": 88.224,
      "mean_motion_rev_day": 14.98331906
    },
    {
      "epoch": "2026-03-31T16:46:20.663328Z",
      "apogee_km": 574.0087617155659,
      "perigee_km": 570.0888569191111,
      "latitude_deg": -4.9937508224660825e-06,
      "longitude_deg": 158.30181448410895,
      "height_km": 574.4062705184075,
      "semi_major_axis_km": 6950.185809317339,
      "eccentricity": 0.000282,
      "inclination_deg": 69.9994,
      "raan_deg": 238.9604,
      "arg_perigee_deg": 272.0398,
      "mean_anomaly_deg": 88.0438,
      "mean_motion_rev_day": 14.9833229
    },
    {
      "epoch": "2026-04-01T10:23:49.241184Z",
      "apogee_km": 574.0154066366658,
      "perigee_km": 570.0829912852942,
      "latitude_deg": -4.49322308741428e-06,
      "longitude_deg": -108.64257558376679,
      "height_km": 574.4020662227066,
      "semi_major_axis_km": 6950.18619896098,
      "eccentricity": 0.0002829,
      "inclination_deg": 69.9994,
      "raan_deg": 237.1089,
      "arg_perigee_deg": 272.1675,
      "mean_anomaly_deg": 87.916,
      "mean_motion_rev_day": 14.98332164
    },
    {
      "epoch": "2026-04-02T15:14:14.398368Z",
      "apogee_km": 574.0589452304121,
      "perigee_km": 570.0520202602584,
      "latitude_deg": 2.884628285084515e-05,
      "longitude_deg": 174.5391861120371,
      "height_km": 574.4783071426342,
      "semi_major_axis_km": 6950.192482745335,
      "eccentricity": 0.00028826,
      "inclination_deg": 70.0001,
      "raan_deg": 234.0799,
      "arg_perigee_deg": 270.1292,
      "mean_anomaly_deg": 89.9537,
      "mean_motion_rev_day": 14.98330132
    },
    {
      "epoch": "2026-04-03T20:04:39.533088Z",
      "apogee_km": 574.045590630124,
      "perigee_km": 570.0684116149232,
      "latitude_deg": -3.697947704091888e-05,
      "longitude_deg": 97.71970481748589,
      "height_km": 574.5590985716524,
      "semi_major_axis_km": 6950.194001122523,
      "eccentricity": 0.00028612,
      "inclination_deg": 69.9993,
      "raan_deg": 231.0496,
      "arg_perigee_deg": 267.8438,
      "mean_anomaly_deg": 92.2393,
      "mean_motion_rev_day": 14.98329641
    },
    {
      "epoch": "2026-04-05T13:44:09.424320Z",
      "apogee_km": 574.0845425202178,
      "perigee_km": 570.0491151731121,
      "latitude_deg": 5.967230299322844e-05,
      "longitude_deg": -173.24305470046684,
      "height_km": 574.5164654837589,
      "semi_major_axis_km": 6950.203828846665,
      "eccentricity": 0.00029031,
      "inclination_deg": 70.0,
      "raan_deg": 226.6722,
      "arg_perigee_deg": 269.3672,
      "mean_anomaly_deg": 90.7155,
      "mean_motion_rev_day": 14.98326463
    },
    {
      "epoch": "2026-04-05T18:32:33.802080Z",
      "apogee_km": 574.0765562380175,
      "perigee_km": 570.0662859790382,
      "latitude_deg": -4.0070944724689165e-05,
      "longitude_deg": 113.9532277406057,
      "height_km": 574.5078500791484,
      "semi_major_axis_km": 6950.208421108528,
      "eccentricity": 0.0002885,
      "inclination_deg": 70.0002,
      "raan_deg": 226.1675,
      "arg_perigee_deg": 269.7407,
      "mean_anomaly_deg": 90.3421,
      "mean_motion_rev_day": 14.98324978
    },
    {
      "epoch": "2026-04-06T07:21:37.849248Z",
      "apogee_km": 574.0418687178162,
      "perigee_km": 570.0659425083513,
      "latitude_deg": 7.741843192379196e-06,
      "longitude_deg": -80.18692728679228,
      "height_km": 574.6786531267179,
      "semi_major_axis_km": 6950.1909056130835,
      "eccentricity": 0.00028603,
      "inclination_deg": 70.0002,
      "raan_deg": 224.8206,
      "arg_perigee_deg": 264.3012,
      "mean_anomaly_deg": 95.7821,
      "mean_motion_rev_day": 14.98330642
    },
    {
      "epoch": "2026-04-07T12:12:02.878560Z",
      "apogee_km": 574.2024064323268,
      "perigee_km": 569.9171930934644,
      "latitude_deg": 1.9086288184823058e-05,
      "longitude_deg": -157.0042436472328,
      "height_km": 574.5177861092453,
      "semi_major_axis_km": 6950.196799762895,
      "eccentricity": 0.00030828,
      "inclination_deg": 70.0004,
      "raan_deg": 221.792,
      "arg_perigee_deg": 269.1865,
      "mean_anomaly_deg": 90.8941,
      "mean_motion_rev_day": 14.98328736
    },
    {
      "epoch": "2026-04-07T18:36:35.004960Z",
      "apogee_km": 574.2034016844036,
      "perigee_km": 569.9040137126212,
      "latitude_deg": -5.8428030693603675e-05,
      "longitude_deg": 105.92536235546969,
      "height_km": 574.5065007810942,
      "semi_major_axis_km": 6950.190707698512,
      "eccentricity": 0.0003093,
      "inclination_deg": 70.0004,
      "raan_deg": 221.1187,
      "arg_perigee_deg": 269.3281,
      "mean_anomaly_deg": 90.7523,
      "mean_motion_rev_day": 14.98330706
    },
    {
      "epoch": "2026-04-08T13:50:12.249024Z",
      "apogee_km": 574.1301132422295,
      "perigee_km": 569.9955783579599,
      "latitude_deg": -3.185614636933892e-05,
      "longitude_deg": 174.7112606006442,
      "height_km": 574.5502622300984,
      "semi_major_axis_km": 6950.199845800094,
      "eccentricity": 0.00029744,
      "inclination_deg": 70.0008,
      "raan_deg": 219.0994,
      "arg_perigee_deg": 268.339,
      "mean_anomaly_deg": 91.7428,
      "mean_motion_rev_day": 14.98327751
    },
    {
      "epoch": "2026-04-09T13:52:13.010304Z",
      "apogee_km": 574.1732826087391,
      "perigee_km": 569.9406144940722,
      "latitude_deg": 3.05271245987571e-05,
      "longitude_deg": 170.69558558024943,
      "height_km": 574.6045114585164,
      "semi_major_axis_km": 6950.193948551406,
      "eccentricity": 0.0003045,
      "inclination_deg": 70.0004,
      "raan_deg": 216.5739,
      "arg_perigee_deg": 266.7488,
      "mean_anomaly_deg": 93.3323,
      "mean_motion_rev_day": 14.98329658
    },
    {
      "epoch": "2026-04-10T12:18:05.805216Z",
      "apogee_km": 574.2864480316939,
      "perigee_km": 569.8285932661493,
      "latitude_deg": 3.812336831079019e-05,
      "longitude_deg": -169.0522149881877,
      "height_km": 574.5271195514564,
      "semi_major_axis_km": 6950.194520648921,
      "eccentricity": 0.0003207,
      "inclination_deg": 70.0002,
      "raan_deg": 214.2173,
      "arg_perigee_deg": 268.9222,
      "mean_anomaly_deg": 91.157,
      "mean_motion_rev_day": 14.98329473
    },
    {
      "epoch": "2026-04-11T13:56:15.091008Z",
      "apogee_km": 574.2382057641471,
      "perigee_km": 569.8873806935853,
      "latitude_deg": 6.010472493566063e-05,
      "longitude_deg": 162.66367057735616,
      "height_km": 574.5106867178448,
      "semi_major_axis_km": 6950.199793228866,
      "eccentricity": 0.000313,
      "inclination_deg": 70.0001,
      "raan_deg": 211.5247,
      "arg_perigee_deg": 269.4651,
      "mean_anomaly_deg": 90.615,
      "mean_motion_rev_day": 14.98327768
    },
    {
      "epoch": "2026-04-13T05:59:36.288384Z",
      "apogee_km": 574.1107790419983,
      "perigee_km": 569.9772283918473,
      "latitude_deg": 6.973955022270787e-05,
      "longitude_deg": -84.02928622368653,
      "height_km": 574.4769284047195,
      "semi_major_axis_km": 6950.1810037169225,
      "eccentricity": 0.00029737,
      "inclination_deg": 70.0004,
      "raan_deg": 207.3151,
      "arg_perigee_deg": 269.8484,
      "mean_anomaly_deg": 90.2335,
      "mean_motion_rev_day": 14.98333844
    },
    {
      "epoch": "2026-04-14T12:26:09.577824Z",
      "apogee_km": 574.1811236250096,
      "perigee_km": 569.9301078135322,
      "latitude_deg": 8.922357109982012e-06,
      "longitude_deg": 174.8860546334676,
      "height_km": 574.5695735406099,
      "semi_major_axis_km": 6950.192615719271,
      "eccentricity": 0.00030582,
      "inclination_deg": 70.0034,
      "raan_deg": 204.1194,
      "arg_perigee_deg": 267.6759,
      "mean_anomaly_deg": 92.405,
      "mean_motion_rev_day": 14.98330089
    },
    {
      "epoch": "2026-04-15T15:40:26.558688Z",
      "apogee_km": 573.9363649223233,
      "perigee_km": 570.1693620163232,
      "latitude_deg": 7.625467314520878e-07,
      "longitude_deg": 122.33567314001289,
      "height_km": 574.6626330764863,
      "semi_major_axis_km": 6950.189863469323,
      "eccentricity": 0.000271,
      "inclination_deg": 70.002,
      "raan_deg": 201.2584,
      "arg_perigee_deg": 264.4412,
      "mean_anomaly_deg": 95.6438,
      "mean_motion_rev_day": 14.98330979
    },
    {
      "epoch": "2026-04-16T14:06:19.378656Z",
      "apogee_km": 574.3328648476027,
      "perigee_km": 569.7804879895475,
      "latitude_deg": 1.9469957419658317e-05,
      "longitude_deg": 142.58667616388607,
      "height_km": 574.5234097128213,
      "semi_major_axis_km": 6950.193676418575,
      "eccentricity": 0.0003275,
      "inclination_deg": 70.0002,
      "raan_deg": 198.9007,
      "arg_perigee_deg": 269.0184,
      "mean_anomaly_deg": 91.06,
      "mean_motion_rev_day": 14.98329746
    },
    {
      "epoch": "2026-04-17T12:32:12.272064Z",
      "apogee_km": 574.3211521805515,
      "perigee_km": 569.7846242367195,
      "latitude_deg": -6.654547391831213e-06,
      "longitude_deg": 162.83915570004058,
      "height_km": 574.5075058287603,
      "semi_major_axis_km": 6950.189888208635,
      "eccentricity": 0.00032636,
      "inclination_deg": 70.0003,
      "raan_deg": 196.5448,
      "arg_perigee_deg": 269.321,
      "mean_anomaly_deg": 90.7575,
      "mean_motion_rev_day": 14.98330971
    }
  ]
}